[{"OBJECT_NAME":"ONEWEB-0560","OBJECT_ID":"2023-004F","EPOCH":"2025-07-31T13:44:14.783712","MEAN_MOTION":13.18684633,"ECCENTRICITY":0.0001896,"INCLINATION":87.9119,"RA_OF_ASC_NODE":39.1698,"ARG_OF_PERICENTER":80.6619,"MEAN_ANOMALY":279.4727,"EPHEMERIS_TYPE":0,"CLASSIFICATION_TYPE":"U","NORAD_CAT_ID":55145,"ELEMENT_SET_NO":999,"REV_AT_EPOCH":12745,"BSTAR":-8.5368e-5,"MEAN_MOTION_DOT":-2.1e-7,"MEAN_MOTION_DDOT":0},{"OBJECT_NAME":"ONEWEB-0565","OBJECT_ID":"2023-004G","EPOCH":"2025-07-31T13:34:45.447456","MEAN_MOTION":13.18686271,"ECCENTRICITY":0.0001365,"INCLINATION":87.9108,"RA_OF_ASC_NODE":39.2284,"ARG_OF_PERICENTER":76.946,"MEAN_ANOMALY":283.1824,"EPHEMERIS_TYPE":0,"CLASSIFICATION_TYPE":"U","NORAD_CAT_ID":55146,"ELEMENT_SET_NO":999,"REV_AT_EPOCH":12744,"BSTAR":0.00015632,"MEAN_MOTION_DOT":7.5e-7,"MEAN_MOTION_DDOT":0},{"OBJECT_NAME":"ONEWEB-0567","OBJECT_ID":"2023-004H","EPOCH":"2025-07-31T18:53:02.818752","MEAN_MOTION":13.18686446,"ECCENTRICITY":0.0001631,"INCLINATION":87.9117,"RA_OF_ASC_NODE":39.1418,"ARG_OF_PERICENTER":77.3143,"MEAN_ANOMALY":282.8171,"EPHEMERIS_TYPE":0,"CLASSIFICATION_TYPE":"U","NORAD_CAT_ID":55147,"ELEMENT_SET_NO":999,"REV_AT_EPOCH":12747,"BSTAR":-3.8967e-5,"MEAN_MOTION_DOT":-2.0e-8,"MEAN_MOTION_DDOT":0},{"OBJECT_NAME":"ONEWEB-0569","OBJECT_ID":"2023-004J","EPOCH":"2025-07-31T20:00:31.171104","MEAN_MOTION":13.13470018,"ECCENTRICITY":0.0001947,"INCLINATION":87.8969,"RA_OF_ASC_NODE":23.8444,"ARG_OF_PERICENTER":61.3305,"MEAN_ANOMALY":298.8019,"EPHEMERIS_TYPE":0,"CLASSIFICATION_TYPE":"U","NORAD_CAT_ID":55148,"ELEMENT_SET_NO":999,"REV_AT_EPOCH":12812,"BSTAR":0.00029616,"MEAN_MOTION_DOT":1.21e-6,"MEAN_MOTION_DDOT":0},{"OBJECT_NAME":"ONEWEB-0570","OBJECT_ID":"2023-004K","EPOCH":"2025-07-31T13:10:58.921248","MEAN_MOTION":13.1868601,"ECCENTRICITY":0.0001216,"INCLINATION":87.9111,"RA_OF_ASC_NODE":39.1915,"ARG_OF_PERICENTER":97.3977,"MEAN_ANOMALY":262.7293,"EPHEMERIS_TYPE":0,"CLASSIFICATION_TYPE":"U","NORAD_CAT_ID":55149,"ELEMENT_SET_NO":999,"REV_AT_EPOCH":12743,"BSTAR":-0.00084295,"MEAN_MOTION_DOT":-3.19e-6,"MEAN_MOTION_DDOT":0},{"OBJECT_NAME":"ONEWEB-0571","OBJECT_ID":"2023-004L","EPOCH":"2025-07-31T20:18:32.582016","MEAN_MOTION":13.18686573,"ECCENTRICITY":0.0001429,"INCLINATION":87.911,"RA_OF_ASC_NODE":39.1385,"ARG_OF_PERICENTER":44.4307,"MEAN_ANOMALY":315.6939,"EPHEMERIS_TYPE":0,"CLASSIFICATION_TYPE":"U","NORAD_CAT_ID":55150,"ELEMENT_SET_NO":999,"REV_AT_EPOCH":12748,"BSTAR":6.1948e-5,"MEAN_MOTION_DOT":3.7e-7,"MEAN_MOTION_DDOT":0},{"OBJECT_NAME":"ONEWEB-0572","OBJECT_ID":"2023-004M","EPOCH":"2025-07-31T14:42:49.389696","MEAN_MOTION":13.17647928,"ECCENTRICITY":0.0001571,"INCLINATION":87.9041,"RA_OF_ASC_NODE":69.6697,"ARG_OF_PERICENTER":81.4146,"MEAN_ANOMALY":278.7163,"EPHEMERIS_TYPE":0,"CLASSIFICATION_TYPE":"U","NORAD_CAT_ID":55151,"ELEMENT_SET_NO":999,"REV_AT_EPOCH":12526,"BSTAR":8.9725e-5,"MEAN_MOTION_DOT":4.8e-7,"MEAN_MOTION_DDOT":0},{"OBJECT_NAME":"ONEWEB-0573","OBJECT_ID":"2023-004N","EPOCH":"2025-07-31T12:52:00.819840","MEAN_MOTION":13.18686929,"ECCENTRICITY":0.0001047,"INCLINATION":87.911,"RA_OF_ASC_NODE":39.2071,"ARG_OF_PERICENTER":68.3858,"MEAN_ANOMALY":291.7386,"EPHEMERIS_TYPE":0,"CLASSIFICATION_TYPE":"U","NORAD_CAT_ID":55152,"ELEMENT_SET_NO":999,"REV_AT_EPOCH":12743,"BSTAR":-4.4484e-5,"MEAN_MOTION_DOT":-5.0e-8,"MEAN_MOTION_DDOT":0},{"OBJECT_NAME":"ONEWEB-0588","OBJECT_ID":"2023-004P","EPOCH":"2025-07-31T12:42:30.536640","MEAN_MOTION":13.18685826,"ECCENTRICITY":0.0001301,"INCLINATION":87.9115,"RA_OF_ASC_NODE":39.1926,"ARG_OF_PERICENTER":90.8942,"MEAN_ANOMALY":269.234,"EPHEMERIS_TYPE":0,"CLASSIFICATION_TYPE":"U","NORAD_CAT_ID":55153,"ELEMENT_SET_NO":999,"REV_AT_EPOCH":12743,"BSTAR":0.0002035,"MEAN_MOTION_DOT":9.3e-7,"MEAN_MOTION_DDOT":0},{"OBJECT_NAME":"ONEWEB-0598","OBJECT_ID":"2023-004Q","EPOCH":"2025-07-31T15:18:02.524608","MEAN_MOTION":13.11416348,"ECCENTRICITY":0.0001778,"INCLINATION":87.8804,"RA_OF_ASC_NODE":84.9736,"ARG_OF_PERICENTER":58.9918,"MEAN_ANOMALY":301.1384,"EPHEMERIS_TYPE":0,"CLASSIFICATION_TYPE":"U","NORAD_CAT_ID":55154,"ELEMENT_SET_NO":999,"REV_AT_EPOCH":12388,"BSTAR":0.0013898,"MEAN_MOTION_DOT":5.05e-6,"MEAN_MOTION_DDOT":0},{"OBJECT_NAME":"ONEWEB-0599","OBJECT_ID":"2023-004R","EPOCH":"2025-07-31T13:46:57.195840","MEAN_MOTION":13.17648954,"ECCENTRICITY":0.0001868,"INCLINATION":87.9039,"RA_OF_ASC_NODE":69.6818,"ARG_OF_PERICENTER":78.1195,"MEAN_ANOMALY":282.0146,"EPHEMERIS_TYPE":0,"CLASSIFICATION_TYPE":"U","NORAD_CAT_ID":55155,"ELEMENT_SET_NO":999,"REV_AT_EPOCH":12526,"BSTAR":-0.00012874,"MEAN_MOTION_DOT":-3.7e-7,"MEAN_MOTION_DDOT":0},{"OBJECT_NAME":"ONEWEB-0614","OBJECT_ID":"2023-004S","EPOCH":"2025-07-31T17:00:34.850016","MEAN_MOTION":13.11416664,"ECCENTRICITY":0.0001564,"INCLINATION":87.8807,"RA_OF_ASC_NODE":84.969,"ARG_OF_PERICENTER":89.3507,"MEAN_ANOMALY":270.78,"EPHEMERIS_TYPE":0,"CLASSIFICATION_TYPE":"U","NORAD_CAT_ID":55156,"ELEMENT_SET_NO":999,"REV_AT_EPOCH":12385,"BSTAR":0.00132,"MEAN_MOTION_DOT":4.81e-6,"MEAN_MOTION_DDOT":0},{"OBJECT_NAME":"ONEWEB-0616","OBJECT_ID":"2023-004T","EPOCH":"2025-07-31T14:47:41.537472","MEAN_MOTION":13.17650216,"ECCENTRICITY":0.0002795,"INCLINATION":87.9039,"RA_OF_ASC_NODE":69.6641,"ARG_OF_PERICENTER":77.9409,"MEAN_ANOMALY":282.2035,"EPHEMERIS_TYPE":0,"CLASSIFICATION_TYPE":"U","NORAD_CAT_ID":55157,"ELEMENT_SET_NO":999,"REV_AT_EPOCH":12548,"BSTAR":1.0451e-5,"MEAN_MOTION_DOT":1.7e-7,"MEAN_MOTION_DDOT":0},{"OBJECT_NAME":"ONEWEB-0617","OBJECT_ID":"2023-004U","EPOCH":"2025-07-31T16:43:28.785216","MEAN_MOTION":13.11418327,"ECCENTRICITY":0.0001406,"INCLINATION":87.8802,"RA_OF_ASC_NODE":84.9503,"ARG_OF_PERICENTER":83.0618,"MEAN_ANOMALY":277.067,"EPHEMERIS_TYPE":0,"CLASSIFICATION_TYPE":"U","NORAD_CAT_ID":55158,"ELEMENT_SET_NO":999,"REV_AT_EPOCH":12386,"BSTAR":0.00038375,"MEAN_MOTION_DOT":1.49e-6,"MEAN_MOTION_DDOT":0},{"OBJECT_NAME":"ONEWEB-0618","OBJECT_ID":"2023-004V","EPOCH":"2025-07-31T13:30:08.694432","MEAN_MOTION":14.67566936,"ECCENTRICITY":0.0015707,"INCLINATION":86.911,"RA_OF_ASC_NODE":306.1102,"ARG_OF_PERICENTER":39.2725,"MEAN_ANOMALY":320.9626,"EPHEMERIS_TYPE":0,"CLASSIFICATION_TYPE":"U","NORAD_CAT_ID":55159,"ELEMENT_SET_NO":999,"REV_AT_EPOCH":13407,"BSTAR":0.0001927,"MEAN_MOTION_DOT":1.118e-5,"MEAN_MOTION_DDOT":0},{"OBJECT_NAME":"ONEWEB-0619","OBJECT_ID":"2023-004W","EPOCH":"2025-07-31T15:33:51.505920","MEAN_MOTION":13.1764842,"ECCENTRICITY":0.0002049,"INCLINATION":87.9031,"RA_OF_ASC_NODE":69.6341,"ARG_OF_PERICENTER":97.4429,"MEAN_ANOMALY":262.6935,"EPHEMERIS_TYPE":0,"CLASSIFICATION_TYPE":"U","NORAD_CAT_ID":55160,"ELEMENT_SET_NO":999,"REV_AT_EPOCH":12538,"BSTAR":7.3431e-5,"MEAN_MOTION_DOT":4.1e-7,"MEAN_MOTION_DDOT":0},{"OBJECT_NAME":"ONEWEB-0620","OBJECT_ID":"2023-004X","EPOCH":"2025-07-31T14:46:17.349312","MEAN_MOTION":13.1141957,"ECCENTRICITY":0.0001587,"INCLINATION":87.8805,"RA_OF_ASC_NODE":84.9878,"ARG_OF_PERICENTER":73.3905,"MEAN_ANOMALY":286.7397,"EPHEMERIS_TYPE":0,"CLASSIFICATION_TYPE":"U","NORAD_CAT_ID":55161,"ELEMENT_SET_NO":999,"REV_AT_EPOCH":12381,"BSTAR":-0.00018254,"MEAN_MOTION_DOT":-5.2e-7,"MEAN_MOTION_DDOT":0},{"OBJECT_NAME":"ONEWEB-0621","OBJECT_ID":"2023-004Y","EPOCH":"2025-07-31T17:15:14.050368","MEAN_MOTION":13.11415458,"ECCENTRICITY":0.0001757,"INCLINATION":87.8806,"RA_OF_ASC_NODE":84.9235,"ARG_OF_PERICENTER":88.0263,"MEAN_ANOMALY":272.1066,"EPHEMERIS_TYPE":0,"CLASSIFICATION_TYPE":"U","NORAD_CAT_ID":55162,"ELEMENT_SET_NO":999,"REV_AT_EPOCH":12383,"BSTAR":0.0013218,"MEAN_MOTION_DOT":4.81e-6,"MEAN_MOTION_DDOT":0},{"OBJECT_NAME":"ONEWEB-0622","OBJECT_ID":"2023-004Z","EPOCH":"2025-07-31T13:42:49.156128","MEAN_MOTION":13.11415072,"ECCENTRICITY":0.0001077,"INCLINATION":87.8801,"RA_OF_ASC_NODE":84.9762,"ARG_OF_PERICENTER":98.0528,"MEAN_ANOMALY":262.0722,"EPHEMERIS_TYPE":0,"CLASSIFICATION_TYPE":"U","NORAD_CAT_ID":55163,"ELEMENT_SET_NO":999,"REV_AT_EPOCH":12377,"BSTAR":0.00073567,"MEAN_MOTION_DOT":2.73e-6,"MEAN_MOTION_DDOT":0},{"OBJECT_NAME":"ONEWEB-0623","OBJECT_ID":"2023-004AA","EPOCH":"2025-07-31T13:37:13.570752","MEAN_MOTION":13.17649891,"ECCENTRICITY":0.0001508,"INCLINATION":87.9033,"RA_OF_ASC_NODE":69.707,"ARG_OF_PERICENTER":109.2234,"MEAN_ANOMALY":250.9061,"EPHEMERIS_TYPE":0,"CLASSIFICATION_TYPE":"U","NORAD_CAT_ID":55164,"ELEMENT_SET_NO":999,"REV_AT_EPOCH":12536,"BSTAR":-8.1043e-6,"MEAN_MOTION_DOT":1.0e-7,"MEAN_MOTION_DDOT":0},{"OBJECT_NAME":"ONEWEB-0624","OBJECT_ID":"2023-004AB","EPOCH":"2025-07-31T13:59:06.494784","MEAN_MOTION":13.12942176,"ECCENTRICITY":0.0001759,"INCLINATION":87.8854,"RA_OF_ASC_NODE":54.3892,"ARG_OF_PERICENTER":88.7304,"MEAN_ANOMALY":271.4026,"EPHEMERIS_TYPE":0,"CLASSIFICATION_TYPE":"U","NORAD_CAT_ID":55165,"ELEMENT_SET_NO":999,"REV_AT_EPOCH":12600,"BSTAR":-0.00076222,"MEAN_MOTION_DOT":-2.63e-6,"MEAN_MOTION_DDOT":0},{"OBJECT_NAME":"ONEWEB-0625","OBJECT_ID":"2023-004AC","EPOCH":"2025-07-31T15:11:59.238528","MEAN_MOTION":13.17648058,"ECCENTRICITY":0.0001933,"INCLINATION":87.9034,"RA_OF_ASC_NODE":69.6911,"ARG_OF_PERICENTER":82.015,"MEAN_ANOMALY":278.1201,"EPHEMERIS_TYPE":0,"CLASSIFICATION_TYPE":"U","NORAD_CAT_ID":55166,"ELEMENT_SET_NO":999,"REV_AT_EPOCH":12536,"BSTAR":-1.0107e-5,"MEAN_MOTION_DOT":9.0e-8,"MEAN_MOTION_DDOT":0},{"OBJECT_NAME":"ONEWEB-0626","OBJECT_ID":"2023-004AD","EPOCH":"2025-07-31T14:57:24.111072","MEAN_MOTION":13.17649207,"ECCENTRICITY":0.0001669,"INCLINATION":87.9035,"RA_OF_ASC_NODE":69.6915,"ARG_OF_PERICENTER":65.6336,"MEAN_ANOMALY":294.497,"EPHEMERIS_TYPE":0,"CLASSIFICATION_TYPE":"U","NORAD_CAT_ID":55167,"ELEMENT_SET_NO":999,"REV_AT_EPOCH":12536,"BSTAR":-0.00045782,"MEAN_MOTION_DOT":-1.65e-6,"MEAN_MOTION_DDOT":0},{"OBJECT_NAME":"ONEWEB-0627","OBJECT_ID":"2023-004AE","EPOCH":"2025-07-31T14:40:24.896928","MEAN_MOTION":13.17648948,"ECCENTRICITY":0.0001382,"INCLINATION":87.9034,"RA_OF_ASC_NODE":69.6956,"ARG_OF_PERICENTER":101.2925,"MEAN_ANOMALY":258.8361,"EPHEMERIS_TYPE":0,"CLASSIFICATION_TYPE":"U","NORAD_CAT_ID":55168,"ELEMENT_SET_NO":999,"REV_AT_EPOCH":12536,"BSTAR":4.8796e-5,"MEAN_MOTION_DOT":3.2e-7,"MEAN_MOTION_DDOT":0}]
